SUPERBIRD-B2            
1 26095U 00012A   17345.80903406 -.00000099  00000-0  00000-0 0  9994
2 26095   0.7784  92.6551 0002755 171.0827 270.1969  1.00271727 14010
